{
    "links": {
        "self": "http://www.neowsapp.com/rest/v1/neo/3428528?api_key=iIulBulltgU6a56xZRHN4H3l9WmuAYTsLGpBGhQ2"
    },
    "id": "3428528",
    "neo_reference_id": "3428528",
    "name": "(2008 SU150)",
    "designation": "2008 SU150",
    "nasa_jpl_url": "http://ssd.jpl.nasa.gov/sbdb.cgi?sstr=3428528",
    "absolute_magnitude_h": 22.8,
    "estimated_diameter": {
        "kilometers": {
            "estimated_diameter_min": 0.0732073989,
            "estimated_diameter_max": 0.1636967205
        },
        "meters": {
            "estimated_diameter_min": 73.2073989347,
            "estimated_diameter_max": 163.696720474
        },
        "miles": {
            "estimated_diameter_min": 0.0454889547,
            "estimated_diameter_max": 0.1017163949
        },
        "feet": {
            "estimated_diameter_min": 240.181762721,
            "estimated_diameter_max": 537.0627483999
        }
    },
    "is_potentially_hazardous_asteroid": false,
    "close_approach_data": [
        {
            "close_approach_date": "2008-09-11",
            "close_approach_date_full": "2008-Sep-11 01:20",
            "epoch_date_close_approach": 1221096000000,
            "relative_velocity": {
                "kilometers_per_second": "2.6373172028",
                "kilometers_per_hour": "9494.3419302057",
                "miles_per_hour": "5899.4148510215"
            },
            "miss_distance": {
                "astronomical": "0.2281169133",
                "lunar": "88.7374792737",
                "kilometers": "34125804.340654671",
                "miles": "21204791.5380336198"
            },
            "orbiting_body": "Earth"
        }
    ],
    "orbital_data": {
        "orbit_id": "12",
        "orbit_determination_date": "2017-04-06 09:02:48",
        "first_observation_date": "2008-09-29",
        "last_observation_date": "2008-10-29",
        "data_arc_in_days": 30,
        "observations_used": 31,
        "orbit_uncertainty": "9",
        "minimum_orbit_intersection": ".200744",
        "jupiter_tisserand_invariant": "3.765",
        "epoch_osculation": "2454747.5",
        "eccentricity": ".3928036546688274",
        "semi_major_axis": "1.976449008516221",
        "inclination": "2.474974804932993",
        "ascending_node_longitude": "262.8183127680469",
        "orbital_period": "1014.908402798345",
        "perihelion_distance": "1.200092614704469",
        "perihelion_argument": "93.60734358435845",
        "aphelion_distance": "2.752805402327973",
        "perihelion_time": "2454735.090011311643",
        "mean_anomaly": "4.401969592024553",
        "mean_motion": ".3547118134083767",
        "equinox": "J2000",
        "orbit_class": {
            "orbit_class_type": "AMO",
            "orbit_class_description": "Near-Earth asteroid orbits similar to that of 1221 Amor",
            "orbit_class_range": "1.017 AU < q (perihelion) < 1.3 AU"
        }
    },
    "is_sentry_object": false
}